[Satellite]
VERSION=1.1
NAME=COSMOS 2444 (726)
NICKNAME=COSMOS 2444 (726)
TLE1=1 33380U 08046C   11059.20700005 -.00000033  00000-0  10000-3 0  6746
TLE2=2 33380  64.8130 142.5948 0027685 327.7083  66.0290  2.13102588 18879
